{"type": "FeatureCollection", "features": [ {"type": "Feature", "properties": {"norad_id": 30252, "name": "FENGYUN 1C DEB", "group": "fengyun-1c-debris", "lat": -78.36209981439016, "lon": 57.855350497723386, "alt_km": 842.5927825197296, "timestamp": "2025-12-20T16:47:36.561618+00:00", "meta": {"OBJECT_NAME": "FENGYUN 1C DEB", "OBJECT_ID": "1999-025XM", "EPOCH": "2025-12-20T00:24:47.484000", "MEAN_MOTION": 14.09721644, "ECCENTRICITY": 0.00661935, "INCLINATION": 98.743, "RA_OF_ASC_NODE": 8.8468, "ARG_OF_PERICENTER": 220.837, "MEAN_ANOMALY": 194.419, "EPHEMERIS_TYPE": 0, "CLASSIFICATION_TYPE": "U", "NORAD_CAT_ID": 30252, "ELEMENT_SET_NO": 999, "REV_AT_EPOCH": 97068, "BSTAR": 0.00029596746, "MEAN_MOTION_DOT": 4.87e-06, "MEAN_MOTION_DDOT": 0}, "tle": {"line1": "1 30252U 99025XM  25354.01721625  .00000487  00000+0  29597-3 0  9993", "line2": "2 30252  98.7430   8.8468 0066193 220.8370 194.4190 14.09721644970682"}}, "geometry": {"type": "Point", "coordinates": [57.855350497723386, -78.36209981439016]}}, {"type": "Feature", "properties": {"norad_id": 30253, "name": "FENGYUN 1C DEB", "group": "fengyun-1c-debris", "lat": 70.50435021831106, "lon": -72.1191224973359, "alt_km": 970.7279726863371, "timestamp": "2025-12-20T16:47:36.561628+00:00", "meta": {"OBJECT_NAME": "FENGYUN 1C DEB", "OBJECT_ID": "1999-025XN", "EPOCH": "2025-12-20T04:19:57.619200", "MEAN_MOTION": 13.73209261, "ECCENTRICITY": 0.02210086, "INCLINATION": 98.7518, "RA_OF_ASC_NODE": 81.6138, "ARG_OF_PERICENTER": 21.2641, "MEAN_ANOMALY": 38.3481, "EPHEMERIS_TYPE": 0, "CLASSIFICATION_TYPE": "U", "NORAD_CAT_ID": 30253, "ELEMENT_SET_NO": 999, "REV_AT_EPOCH": 94116, "BSTAR": 0.0014942702, "MEAN_MOTION_DOT": 1.611e-05, "MEAN_MOTION_DDOT": 0}, "tle": {"line1": "1 30253U 99025XN  25354.18052800  .00001611  00000+0  14943-2 0  9992", "line2": "2 30253  98.7518  81.6138 0221008  21.2641  38.3481 13.73209261941161"}}, "geometry": {"type": "Point", "coordinates": [-72.1191224973359, 70.50435021831106]}}, {"type": "Feature", "properties": {"norad_id": 30257, "name": "FENGYUN 1C DEB", "group": "fengyun-1c-debris", "lat": -78.9673559934043, "lon": 45.21420551649778, "alt_km": 908.2994432072983, "timestamp": "2025-12-20T16:47:36.561638+00:00", "meta": {"OBJECT_NAME": "FENGYUN 1C DEB", "OBJECT_ID": "1999-025XS", "EPOCH": "2025-12-19T11:14:57.954048", "MEAN_MOTION": 14.09727215, "ECCENTRICITY": 0.0059721, "INCLINATION": 98.7494, "RA_OF_ASC_NODE": 351.8449, "ARG_OF_PERICENTER": 80.5354, "MEAN_ANOMALY": 72.5729, "EPHEMERIS_TYPE": 0, "CLASSIFICATION_TYPE": "U", "NORAD_CAT_ID": 30257, "ELEMENT_SET_NO": 999, "REV_AT_EPOCH": 97312, "BSTAR": 0.00015545, "MEAN_MOTION_DOT": 2.35e-06, "MEAN_MOTION_DDOT": 0}, "tle": {"line1": "1 30257U 99025XS  25353.46872632  .00000235  00000+0  15545-3 0  9990", "line2": "2 30257  98.7494 351.8449 0059721  80.5354  72.5729 14.09727215973125"}}, "geometry": {"type": "Point", "coordinates": [45.21420551649778, -78.9673559934043]}}, {"type": "Feature", "properties": {"norad_id": 30259, "name": "FENGYUN 1C DEB", "group": "fengyun-1c-debris", "lat": 75.63126161245951, "lon": 169.7518709350373, "alt_km": 879.4748131292072, "timestamp": "2025-12-20T16:47:36.561648+00:00", "meta": {"OBJECT_NAME": "FENGYUN 1C DEB", "OBJECT_ID": "1999-025XU", "EPOCH": "2025-12-20T03:44:56.913792", "MEAN_MOTION": 14.51539838, "ECCENTRICITY": 0.02419831, "INCLINATION": 98.7611, "RA_OF_ASC_NODE": 206.1974, "ARG_OF_PERICENTER": 245.7241, "MEAN_ANOMALY": 235.0619, "EPHEMERIS_TYPE": 0, "CLASSIFICATION_TYPE": "U", "NORAD_CAT_ID": 30259, "ELEMENT_SET_NO": 999, "REV_AT_EPOCH": 99582, "BSTAR": 0.00030899601, "MEAN_MOTION_DOT": 1.745e-05, "MEAN_MOTION_DDOT": 0}, "tle": {"line1": "1 30259U 99025XU  25354.15621428  .00001745  00000+0  30900-3 0  9993", "line2": "2 30259  98.7611 206.1974 0241983 245.7241 235.0619 14.51539838995820"}}, "geometry": {"type": "Point", "coordinates": [169.7518709350373, 75.63126161245951]}}, {"type": "Feature", "properties": {"norad_id": 30263, "name": "FENGYUN 1C DEB", "group": "fengyun-1c-debris", "lat": -30.585998424720938, "lon": -75.61878238365398, "alt_km": 957.2268692091411, "timestamp": "2025-12-20T16:47:36.561658+00:00", "meta": {"OBJECT_NAME": "FENGYUN 1C DEB", "OBJECT_ID": "1999-025XY", "EPOCH": "2025-12-20T07:28:46.628256", "MEAN_MOTION": 14.01494898, "ECCENTRICITY": 0.0144483, "INCLINATION": 98.9351, "RA_OF_ASC_NODE": 109.3367, "ARG_OF_PERICENTER": 339.2977, "MEAN_ANOMALY": 76.0019, "EPHEMERIS_TYPE": 0, "CLASSIFICATION_TYPE": "U", "NORAD_CAT_ID": 30263, "ELEMENT_SET_NO": 999, "REV_AT_EPOCH": 96131, "BSTAR": 0.00070985, "MEAN_MOTION_DOT": 1.131e-05, "MEAN_MOTION_DDOT": 0}, "tle": {"line1": "1 30263U 99025XY  25354.31165079  .00001131  00000+0  70985-3 0  9997", "line2": "2 30263  98.9351 109.3367 0144483 339.2977  76.0019 14.01494898961315"}}, "geometry": {"type": "Point", "coordinates": [-75.61878238365398, -30.585998424720938]}}, {"type": "Feature", "properties": {"norad_id": 30264, "name": "FENGYUN 1C DEB", "group": "fengyun-1c-debris", "lat": -36.250397756530056, "lon": -136.87688624365254, "alt_km": 821.1998532723537, "timestamp": "2025-12-20T16:47:36.561668+00:00", "meta": {"OBJECT_NAME": "FENGYUN 1C DEB", "OBJECT_ID": "1999-025XZ", "EPOCH": "2025-12-20T10:43:02.949024", "MEAN_MOTION": 14.07667334, "ECCENTRICITY": 0.0107799, "INCLINATION": 98.9698, "RA_OF_ASC_NODE": 49.5221, "ARG_OF_PERICENTER": 265.7001, "MEAN_ANOMALY": 109.6508, "EPHEMERIS_TYPE": 0, "CLASSIFICATION_TYPE": "U", "NORAD_CAT_ID": 30264, "ELEMENT_SET_NO": 999, "REV_AT_EPOCH": 96666, "BSTAR": 0.00098942, "MEAN_MOTION_DOT": 1.718e-05, "MEAN_MOTION_DDOT": 0}, "tle": {"line1": "1 30264U 99025XZ  25354.44656191  .00001718  00000+0  98942-3 0  9996", "line2": "2 30264  98.9698  49.5221 0107799 265.7001 109.6508 14.07667334966666"}}, "geometry": {"type": "Point", "coordinates": [-136.87688624365254, -36.250397756530056]}}, {"type": "Feature", "properties": {"norad_id": 30265, "name": "FENGYUN 1C DEB", "group": "fengyun-1c-debris", "lat": -75.29947114790325, "lon": -111.37335744837507, "alt_km": 704.3296355392704, "timestamp": "2025-12-20T16:47:36.561678+00:00", "meta": {"OBJECT_NAME": "FENGYUN 1C DEB", "OBJECT_ID": "1999-025YA", "EPOCH": "2025-12-20T06:01:15.460032", "MEAN_MOTION": 14.58755329, "ECCENTRICITY": 0.0028086, "INCLINATION": 98.6646, "RA_OF_ASC_NODE": 103.6962, "ARG_OF_PERICENTER": 349.168, "MEAN_ANOMALY": 73.4107, "EPHEMERIS_TYPE": 0, "CLASSIFICATION_TYPE": "U", "NORAD_CAT_ID": 30265, "ELEMENT_SET_NO": 999, "REV_AT_EPOCH": 98511, "BSTAR": 0.0014016, "MEAN_MOTION_DOT": 6.535e-05, "MEAN_MOTION_DDOT": 0}, "tle": {"line1": "1 30265U 99025YA  25354.25087338  .00006535  00000+0  14016-2 0  9998", "line2": "2 30265  98.6646 103.6962 0028086 349.1680  73.4107 14.58755329985114"}}, "geometry": {"type": "Point", "coordinates": [-111.37335744837507, -75.29947114790325]}}, {"type": "Feature", "properties": {"norad_id": 30266, "name": "FENGYUN 1C DEB", "group": "fengyun-1c-debris", "lat": 72.33300995977545, "lon": -90.98361468801704, "alt_km": 806.5762209644527, "timestamp": "2025-12-20T16:47:36.561688+00:00", "meta": {"OBJECT_NAME": "FENGYUN 1C DEB", "OBJECT_ID": "1999-025YB", "EPOCH": "2025-12-20T02:52:06.007008", "MEAN_MOTION": 14.15114543, "ECCENTRICITY": 0.00820962, "INCLINATION": 99.0423, "RA_OF_ASC_NODE": 58.4307, "ARG_OF_PERICENTER": 44.9975, "MEAN_ANOMALY": 345.1719, "EPHEMERIS_TYPE": 0, "CLASSIFICATION_TYPE": "U", "NORAD_CAT_ID": 30266, "ELEMENT_SET_NO": 999, "REV_AT_EPOCH": 96894, "BSTAR": 0.00090809827, "MEAN_MOTION_DOT": 1.774e-05, "MEAN_MOTION_DDOT": 0}, "tle": {"line1": "1 30266U 99025YB  25354.11951397  .00001774  00000+0  90810-3 0  9996", "line2": "2 30266  99.0423  58.4307 0082096  44.9975 345.1719 14.15114543968941"}}, "geometry": {"type": "Point", "coordinates": [-90.98361468801704, 72.33300995977545]}}, {"type": "Feature", "properties": {"norad_id": 30267, "name": "FENGYUN 1C DEB", "group": "fengyun-1c-debris", "lat": -78.70596048874401, "lon": -165.36193524461066, "alt_km": 788.5815755535832, "timestamp": "2025-12-20T16:47:36.561698+00:00", "meta": {"OBJECT_NAME": "FENGYUN 1C DEB", "OBJECT_ID": "1999-025YC", "EPOCH": "2025-12-20T03:45:17.156448", "MEAN_MOTION": 14.23652517, "ECCENTRICITY": 0.00596523, "INCLINATION": 98.85, "RA_OF_ASC_NODE": 65.3643, "ARG_OF_PERICENTER": 222.017, "MEAN_ANOMALY": 137.6425, "EPHEMERIS_TYPE": 0, "CLASSIFICATION_TYPE": "U", "NORAD_CAT_ID": 30267, "ELEMENT_SET_NO": 999, "REV_AT_EPOCH": 97400, "BSTAR": 0.0010711342, "MEAN_MOTION_DOT": 2.443e-05, "MEAN_MOTION_DDOT": 0}, "tle": {"line1": "1 30267U 99025YC  25354.15644857  .00002443  00000+0  10711-2 0  9996", "line2": "2 30267  98.8500  65.3643 0059652 222.0170 137.6425 14.23652517974002"}}, "geometry": {"type": "Point", "coordinates": [-165.36193524461066, -78.70596048874401]}}, {"type": "Feature", "properties": {"norad_id": 30270, "name": "FENGYUN 1C DEB", "group": "fengyun-1c-debris", "lat": -75.09712021410714, "lon": 153.04496843197404, "alt_km": 865.0753666501914, "timestamp": "2025-12-20T16:47:36.561709+00:00", "meta": {"OBJECT_NAME": "FENGYUN 1C DEB", "OBJECT_ID": "1999-025YF", "EPOCH": "2025-12-20T07:22:58.208160", "MEAN_MOTION": 14.11274384, "ECCENTRICITY": 0.0007745, "INCLINATION": 98.7017, "RA_OF_ASC_NODE": 7.7967, "ARG_OF_PERICENTER": 139.3418, "MEAN_ANOMALY": 287.3735, "EPHEMERIS_TYPE": 0, "CLASSIFICATION_TYPE": "U", "NORAD_CAT_ID": 30270, "ELEMENT_SET_NO": 999, "REV_AT_EPOCH": 97468, "BSTAR": 7.3146e-05, "MEAN_MOTION_DOT": 9e-07, "MEAN_MOTION_DDOT": 0}, "tle": {"line1": "1 30270U 99025YF  25354.30761815  .00000090  00000+0  73146-4 0  9990", "line2": "2 30270  98.7017   7.7967 0007745 139.3418 287.3735 14.11274384974688"}}, "geometry": {"type": "Point", "coordinates": [153.04496843197404, -75.09712021410714]}}]}